LEMUR-2-JIN-LUEN        
1 43182U 18014C   26068.72674412  .00269889  00000+0  14690-2 0  9990
2 43182  97.5433 359.0029 0003472 144.7507 215.3989 15.79211945445478
STARLINK-36119          
1 67619U 26020C   26067.28554944  .00366892  00000+0  21609-2 0  9994
2 67619  42.9984 150.7894 0003105 287.1667  72.8862 15.76354622  5860
