[{"OBJECT_NAME":"LEMUR-2-JIN-LUEN","OBJECT_ID":"2018-014C","EPOCH":"2026-03-09T17:26:30.692832","MEAN_MOTION":15.79211945,"ECCENTRICITY":0.00034721,"INCLINATION":97.5433,"RA_OF_ASC_NODE":359.0029,"ARG_OF_PERICENTER":144.7507,"MEAN_ANOMALY":215.3989,"EPHEMERIS_TYPE":0,"CLASSIFICATION_TYPE":"U","NORAD_CAT_ID":43182,"ELEMENT_SET_NO":999,"REV_AT_EPOCH":44547,"BSTAR":0.0014690021,"MEAN_MOTION_DOT":0.00269889,"MEAN_MOTION_DDOT":0},{"OBJECT_NAME":"STARLINK-36119","OBJECT_ID":"2026-020C","EPOCH":"2026-03-08T06:51:11.471616","MEAN_MOTION":15.76354622,"ECCENTRICITY":0.00031059,"INCLINATION":42.9984,"RA_OF_ASC_NODE":150.7894,"ARG_OF_PERICENTER":287.1667,"MEAN_ANOMALY":72.8862,"EPHEMERIS_TYPE":0,"CLASSIFICATION_TYPE":"U","NORAD_CAT_ID":67619,"ELEMENT_SET_NO":999,"REV_AT_EPOCH":586,"BSTAR":0.0021609281,"MEAN_MOTION_DOT":0.00366892,"MEAN_MOTION_DDOT":0}]
